name,raw_operating_hours,address,waze_link,latitude,longitude
Subway Menara UOA Bangsar,"Monday - Sunday, 8:00 AM - 8:00 PM","Jalan Bangsar Utama 1, Unit 1-2-G, Menara UOA Bangsar, Kuala Lumpur, 59000",https://www.waze.com/en/live-map/directions/my/federal-territory-of-kuala-lumpur/kuala-lumpur/subway-@-menara-uoa-bangsar?place=ChIJPWFRH5RJzDERvHvlO1uTQpY,3.126969,101.6768848
Subway One Utama,"0800 - 2200 (Sun - Thur)
0800 - 2230 (Fri & Sat)","318A One Utama, Lower Ground Floor, New Wing, 1 Utama Shopping Centre, Petaling Jaya, 47800",https://www.waze.com/en/live-map/directions/my/selangor/pj/1-utama-shopping-centre?place=ChIJL-Qvn9JOzDERBLmeTTrrgf0,3.1508396,101.6154218
Subway Jln Pinang,"Monday - Saturday, 8:00 AM – 9:00PM
Sunday, 11:30 AM – 6:30PM","G9, Wisma UOA II, 19, Jalan Pinang, Kuala Lumpur, 50450",https://www.waze.com/en/live-map/directions/my/wilayah-persekutuan-kuala-lumpur/kuala-lumpur/subway-@-jalan-pinang-kl?place=ChIJIzvym9Q3zDER9MZj809Opn0,3.1525875,101.712256
Subway UOA Damansara,"Monday - Saturday, 8:00 AM – 8:30PM
Sunday, Closed","Unit 50-G-5, Ground Floor, Wisma UOA Damansara, No. 50, Jalan Dungun, Kuala Lumpur, 50490",https://www.waze.com/en/live-map/directions/my/wilayah-persekutuan-kuala-lumpur/kuala-lumpur/subway-@-wisma-uoa-damansara?place=ChIJa5Vpq1RIzDER8-Wwe3eFNUI,3.1517288,101.6660061
Subway The Mines,"Monday - Sunday, 10:00 AM - 10:00 PM","Lot L1-93, Level 1, Mines Shopping Fair,Jln Dulang, Mines Resort City, Seri Kembangan, 43300","https://www.waze.com/en/live-map/directions/subway-the-mines-shopping-mall-jalan-dulang,-l1-93-seri-kembangan?place=w.66650142.666632495.27412970",3.028038,101.7190912
Subway Mont Kiara,"Monday - Sunday, 10:00 AM - 10:00 PM","E-01-16 ,Block E, Plaza Mont Kiara, 2 Jalan Kiara, Mont Kiara, Kuala Lumpur, 50480",https://www.waze.com/en/live-map/directions/my/wilayah-persekutuan-kuala-lumpur/kuala-lumpur/subway-@-plaza-montkiara?place=ChIJ62Fw6vFIzDEReI7qDH2RtxQ,3.1658129,101.6510419
Subway Amcorp Mall,"Monday - Friday, 9:00 AM – 10:00PM
Saturday & Sunday, 10:00 AM – 10:00PM","(Canopy Area), Lot KG-05, 18 Jln Persiaran, Ground Floor, Barat, Petaling Jaya, 46050",https://www.waze.com/en/live-map/directions/my/selangor/pj/subway-@-amcorp-mall-pj?place=ChIJgcEy_dpLzDERqz_XQPpVA2U,3.2697832,101.6734354
Subway Avenue K,"Monday - Sunday, 8:00 AM - 10:00 PM","Lot UC-8 & 9, Upper Concourse Level, Avenue K, No. 156, Jalan Ampang, Kuala Lumpur, 50450","https://www.waze.com/en/live-map/directions/subway-avenue-k-lot-uc-8-and-9,-upper-concourse-level,-avenue-k-kuala-lumpur?place=w.66650144.666566972.27413004",3.159418,101.7134125
Subway Center Point,"Monday, 8:00 AM – 10:00PM
Tuesday - Wednesday, 8:00 AM – 10:30PM
Thursday, 8:00 AM – 9:00PM
Friday & Saturday, 8:00 AM – 11:00PM
Sunday, 8:00 AM – 10:30PM","Lebuh Bandar Utama, Center Point, Lot G104B Gr Floor, Petaling Jaya, 47800","https://www.waze.com/en/live-map/directions/subway-lebuh-bandar-utama-lebuh-bandar-utama,-center-point,-lot-g104b-petaling-jaya?place=w.66584607.665911610.27441776",3.1467185,101.6119073
Subway Shell Sunway Mentari,Monday - Sunday (08:00AM - 10:00PM),"1, Jalan PJS 8/9 (Shell) Bandar Sunway, 46000 Selangor","https://waze.com/ul?ll=3.079525,101.609623",3.0795325,101.6096323
Subway Berjaya Times Square,"Monday - Sunday, 10:00 AM - 10:00 PM","LG-08A, Berjaya Times Square, No. 1, Jalan Imbi, Kuala Lumpur, 55100","https://www.waze.com/en/live-map/directions/subway-berjaya-times-square-lot-03-103,-3rd-floor,-berjaya-times-square-kuala-lumpur?place=w.66650143.666566970.27413449",3.1425177,101.7103847
Subway Capsquare,"Monday - Saturday, 8:00 AM – 9:00PM
Sunday, Closed","Ground Floor, Unit 01-02, Cap Square Tower, 10 Jalan Munshi Abdullah, Kuala Lumpur, 50100",https://www.waze.com/en/live-map/directions/my/wilayah-persekutuan-kuala-lumpur/kuala-lumpur/subway-@-capsquare?place=ChIJy-MVCLdJzDER31pWsrn_WZE,3.1542071,101.6987835
Subway University Malaya,"Monday - Friday, 8:00 AM – 6:30PM
Saturday, Sunday & Public Holiday, 8:00 AM – 3:00PM","Faculty of Dentistry, Level 1, Block B, University of Malaya, Kuala Lumpur, 50603",https://www.waze.com/en/live-map/directions/subway-university-of-malaya-university-of-malaya-faculty-of-dentistry-petaling-jaya?place=w.66650143.666173751.27402188,3.1219268,101.6569942
Subway Jade Hills,,"No 40-G, Jalan Jade Hills Utama 1/2, Commerce Village, Jade Hills, 43000 Kajang, Selangor.",https://www.waze.com/en/live-map/directions/my/selangor/kajang/subway-jade-hill?place=ChIJuRzJknvLzTERiX5pZXHT0gw,2.9941139,101.758669
Subway Wangsa Walk,"Monday - Sunday, 9:30 AM - 9:30 PM","Wangsa Ave, Bandar Wangsa Maju, #9 Jalan Perdana 1, G-52, Wangsa Walk Mall, Kuala Lumpur, 53300","https://www.waze.com/en/live-map/directions/subway-wangsa-walk-mall-g-52,-wangsa-walk-mall-kuala-lumpur?place=w.66650144.666763584.27401138",3.1985818,101.7422055
Subway TTDI,"Monday - Sunday, 8:30 AM - 9:00 PM","Lvl1, Petronas Svs Station TTDI,Lot29395 & 29396, Pinggir Zaaba, Taman Tun Dr Ismail, Kuala Lumpur, 60000",https://www.waze.com/en/live-map/directions/my/wilayah-persekutuan-kuala-lumpur/kuala-lumpur/subway-@-pinggir-zaaba-taman-tun?place=ChIJuRYqITBJzDER76oB2espXlU,3.1420259,101.6255264
Subway Plaza Shah Alam,"Monday - Sunday, 9:30 AM – 09:30PM","Lot No. G 17, Ground Floor, Plaza Shah Alam, Sekysen 9, Shah Alam, 40100","https://www.waze.com/en/live-map/directions/subway-@plaza-shah-alam-lot-g17,-plaza-shah-alam?place=w.66519071.665321780.27398400",3.0843475,101.5233127
Subway Taipan,"Monday - Sunday, 8:00 AM - 8:00 PM","7A, Jalan USJ 10/1j, Taipan Business Centre, 47620 Subang Jaya, Selangor",https://www.waze.com/en/live-map/directions/subway-taipan-jalan-usj-101j-7-subang-jaya?place=w.66584606.665780529.2845552,3.0479318,101.5860154
Subway Menara Aras Jaya,"Monday - Friday, 8:00 AM – 9:00PM
Saturday & Sunday, 10:00 AM – 7:00PM","LG Floor, Menara Bumiputra Commerce, No 11, Jalan Raja Laut, 50350 Kuala Lumpur","https://www.waze.com/en/live-map/directions/subway-cimb-cimb-11-jalan-raja-laut,-lower-ground-floor-kuala-lumpur?place=w.66650144.666501436.27395039",3.1554325,101.6951143
Subway The Place @ Ampang,"Monday - Sunday, 8:30 AM - 9:00 PM","Petronas Gas Station/C-Store, Lot 36904 TT27423, Jalan Air Kolam Lama, Ampang, 68000","https://waze.com/ul?ll=3.160486,101.754338",3.1313756,101.7626072
Subway Tesco Kepong,"Monday - Sunday, 10:15 AM - 9:30 PM","Tesco Kepong Village Mall, Lot No. 14, 1st Floor, No. 3 Jalan 7A/62A Bandar Manjalara, Kuala Lumpur, 52200","https://www.waze.com/en/live-map/directions/subway-lotuss-kepong-village-lot-no.-14,-1st-floor,-lotuss-kepong-village-mall-kuala-lumpur?place=w.66584608.666042687.27399057",3.1952966,101.6331794
Subway Jalan Ipoh,"Monday - Sunday, 8:00 AM - 10:00 PM","No. 447, Jalan Ipoh, Batu 3, Taman Million, 51200 Kuala Lumpur","https://www.waze.com/en/live-map/directions/subway-rivercity-village-468-1(1),-ground-floor,-block-f-rivercity-village-kuala-lumpur?place=w.66650144.666370366.16193787",3.1823997,101.6818611
Subway Selayang Mall,"Monday - Sunday, 9:00 AM - 10:00 PM","Selayang Mall, GSW .5A, Ground Floor, Batu Caves, 68100","https://www.waze.com/en/live-map/directions/subway-selayang-mall-5a,-ground-floor,-selayang-mall-batu-caves?place=w.66584608.666108228.27398140",3.237487100000001,101.6441905
Subway AEON BIG Puchong,"Monday - Sunday, 10:00 AM - 10:00 PM","AEON BIG Shopping Center, Lot No G04 Ground Floor, Lot 4029 Persiaran Selangor, Puchong Utama, 47100",https://ul.waze.com/ul?preview_venue_id=66584606.665911595.26934483&navigate=yes&utm_campaign=default&utm_source=waze_website&utm_medium=lm_share_location,3.0628552,101.520509
Subway Seksyen 13,Monday - Sunday (9:30AM - 10:30PM),"Tadisma Business Park, Seksyen 13, 40100 Shah Alam, Selangor","https://waze.com/ul?ll=3.089032,101.546357",3.089032,101.546357
Subway Axis Atrium,"Monday - Sunday, 8:00 AM - 9:00 PM","Axis Atrium, Lot No. G-3 Ground Floor, Jalan Cempaka, Taman Cempaka Ampang, 68000","https://www.waze.com/en/live-map/directions/subway-axis-atrium-axis-atrium,-lot-no.-g-3-ground-floor-kuala-lumpur?place=w.66650143.666829114.27401140",3.136544,101.7472814
Subway Taman Prima Saujana,"Monday - Sunday, 8:00 AM - 9:30 PM","G-2A-GB, Jalan Prima Saujana 2/D, Taman Prima Saujana, 43000 Kajang, Selangor",https://www.waze.com/en/live-map/directions/my/selangor/kajang/subway-prima-saujana?place=ChIJ5T1_lhrNzTERznG7echZSEc,3.0087878,101.8045032
Subway Cova Square,"Monday - Sunday, 8:00 AM - 9:00 PM","G16, Cova Square Jalan Teknologi Pju5 Kota Damansara 47810 Petaling Jaya Selangor",https://www.waze.com/en/live-map/directions/subway-cova-square-jalan-teknologi-16-petaling-jaya?place=w.66584607.665649467.17215766,3.1474439,101.5754342
Subway Giant Bandar Kinrara - Puchong,"Monday - Sunday, 9:30 AM - 10:00 PM","Giant Hypermkt Bandar Kinrara, Lot No:G8, Lot 449, Jalan BK 5A/1, Bandar Kinrara, Puchong, 47100",https://www.waze.com/en/live-map/directions/my/selangor/puchong/subway-@-giant-hypermarket-bandar-kinrara?place=ChIJQWetUDxLzDERNXcKhA-KR-A,3.050157,101.6463211
Subway One City,"Monday - Sunday, 9:00 AM - 7:45 PM","One City@Skypark, C-GF-01 Ground Floor, Jalan USJ 25/1, Subang Jaya, 47650",https://www.waze.com/en/live-map/directions/my/selangor/subang-jaya/subway?place=ChIJSx9gBCWzzTER0Qhz_gj_2QQ,3.0221586,101.580368
Subway Southgate,"Monday - Sunday, 8:00 AM - 9:00 PM","Pusat Komersial Southgate, No. 2, Jalan Dua, Unit E-1-6, Off Jalan Chan Sow Lin, Lvl 1, Kuala Lumpur, 55200",https://www.waze.com/en/live-map/directions/my/wilayah-persekutuan-kuala-lumpur/kuala-lumpur/subway-@-southgate-commercial-center?place=ChIJd4K2SBw2zDERvbRfvxkCiEw,3.1219625,101.7134513
Subway Brem Mall,"Monday - Sunday, 8:00 AM - 10:00 PM","G-06, Brem Mall, Jalan Kepong, Kepong, Kuala Lumpur, 52000","https://www.waze.com/en/live-map/directions/subway-brem-mall-g-06,-brem-mall,-jalan-kepong,-kepong-kuala-lumpur?place=w.66650144.666304832.27401872",3.2044953,101.6674289
Subway Festival City,"Monday - Sunday, 10:00 AM - 10:00 PM","Setapak Central Mall, Lot S-23, No. 67 Jalan Taman Ibu Kota, Taman Danau Kota, Setapak, Kuala Lumpur, 53200",https://www.waze.com/en/live-map/directions/my/federal-territory-of-kuala-lumpur/kuala-lumpur/subway-@-setapak-central-mall?place=ChIJ6fjTnRE4zDEReW77Yg4uqrY,3.205435,101.7199889
Subway Aeon Big Wangsamaju,"Monday - Sunday, 10:00 AM - 10:00 PM","Aeon Big Wangsa Maju, F1-09, First Floor, Jalan 8/27A, Section 5, Wangsa Maju, 53300 Kuala Lumpur.","https://www.waze.com/en/live-map/directions/subway-aeon-big-wangsa-maju-f1-09,-first-floor,-aeon-big-wangsa-maju,-wangsa-maju-kuala-lumpur?place=w.66650144.666763584.27401144",3.196448,101.7422024
Subway Endah Parade,"Monday - Sunday, 8:00 AM - 10:00 PM","Endah Parade Shopping Complex, Lot G-013A, Ground Floor, Jalan 1/149E, Kuala Lumpur, 57000","https://www.waze.com/en/live-map/directions/subway-endah-parade-endah-parade-shopping-complex,-kuala-lumpur?place=w.66650143.666501426.27401582",3.063303,101.6951981
Subway NKVE,"Monday - Sunday, 10:00 AM - 9:00 PM","Lot 15385KM 15.3, (NKVE), Petronas New Klang Expressway, Damansara Bound, Sungai Buloh, 47000",https://www.waze.com/en/live-map/directions/my/selangor/sungai-buloh/subway?place=ChIJ4VodophOzDERaGq4H8ZxsAw,3.1192383,101.5928717
Subway Star Avenue,"Monday - Sunday, 10:00 AM - 10:00 PM","Star Avenue Lifestyle Mall, Lot No: L1-13 & L1-K2, No. 3, Jalan Zuhal U5/179, Pusat Komersial Arena Bintang,Seksyen U5, Shah Alam, 40150","https://waze.com/ul?ll=3.154583,101.553631",3.1545825,101.5536314
Subway Metro Point,"Monday - Sunday, 9:30 AM - 9:30 PM","Metro Point Complex, Lot G03 Ground Floor, Jalan Jelok 8, Kajang, 43000","https://www.waze.com/en/live-map/directions/subway-metro-point-complex-metro-point-complex,-lot-g03-ground-floor-kajang?place=w.66715678.667091243.27400766",2.9916367,101.793722
Subway Mydin USJ,"Monday - Sunday, 10:00 AM - 10:00 PM","G-42 & G-43, Ground Floor,Persiaran Subang Permai, USJ 1, 47500 Subang Jaya, Selangor.",https://www.waze.com/en/live-map/directions/my/selangor/pj/subway-(mydin-subang-jaya-hypermarket)?place=ChIJA4PoRR5NzDERe-Q_fZOYgKM,3.0576204,101.5933612
Subway TBS,"Monday - Sunday, 10:00 AM – 8:00PM
Friday, 9:00 AM – 9:00PM","Unit L4-29, 4th Floor, Terminal Bersepadu Selatan, Bandar Tasik Selatan, Kuala Lumpur, 57100",https://www.waze.com/en/live-map/directions/my/federal-territory-of-kuala-lumpur/kuala-lumpur/subway-@-tbs?place=ChIJAVz8DF81zDERXWs-EKFOIF8,3.078001,101.7109215
Subway KWC (Kenanga),"Monday - Sunday, 10:00 AM - 8:00 PM","KWC Fashion Mall, No.2, Jalan Gelugor, Lot G-08, Kuala Lumpur, 55200",https://www.waze.com/en/live-map/directions/subway-kwc-fashion-mall-lot-g-08-kwc-fashion-mall-kuala-lumpur?place=w.66650143.666566970.27400904,3.1367328,101.7078259
Subway Selayang 18,"Monday - Sunday, 8:00 AM - 9:00 PM","Lot 3.06, 3rd Floor vendor letter SH-15-G,Grd Floor,Selayang, Kuala Lumpur, 68000 , Batu Caves, 68100",https://www.waze.com/en/live-map/directions/subway-selayang-18-persiaran-3-batu-caves?place=w.66650145.666173766.21949236,3.2378844,101.6840385
Subway Sime Darby Parkcity,"Monday - Sunday, 8:00 AM - 9:30 PM","Sime Darby Parkcity, CP Retail 2, No. 2 Jalan Intisari, Perdana Desa Parkcity, Kuala Lumpur, 52200","https://www.waze.com/en/live-map/directions/subway-desa-park-city-sime-darby-parkcity,-cp-retail-2-kuala-lumpur?place=w.66584608.666108223.14350474",3.1893179,101.6385075
Subway TM,"Monday, 10:00 AM – 8:00PM
Tuesday - Thursday, 8:00 AM – 8:00PM
Friday, 8:20 AM – 8:00PM
Saturday, 9:00 AM – 9:00PM
Sunday, Closed","Lower Ground 1 (LG1), Menara TM, Jalan Pantai Baharu, 50672 Kuala Lumpur",https://www.waze.com/en/live-map/directions/my/federal-territory-of-kuala-lumpur/kuala-lumpur/subway-@-menara-tm?place=ChIJ97qHTY1JzDEREeRr6wtfSts,3.1161294,101.665866
Subway GPS,"Monday - Sunday, 8:00 AM - 11:00 PM","Petronas Green Plus Station, Plus Hwy & Sungai Besi Hwy, Lot 896, Ground Floor, QSR 3, Mukim Kajang, Hulu Langat, 43300","https://waze.com/ul?ll=3.005880,101.725544",3.0059021,101.7255901
Subway Sunway Lagoon,"Monday - Sunday (10:00AM - 6:00PM)
Tuesday : Close","Sunway Lagoon Theme Park, FB-Z-001, 3, Jalan PJS 11/11, Bandar Sunway, Petaling Jaya, 46150","https://www.waze.com/en/live-map/directions/subway-sunway-lagoon-sunway-lagoon-theme-park,-fb-z-001,-3-petaling-jaya?place=w.66584607.665911603.27401305",3.0693932,101.6067533
Subway Sri Gombak,"Monday - Sunday, 8:00 AM - 10:30 PM","No. G100, Jalan Prima SG3/2, Taman Prima, Sri Gombak, Kuala Lumpur, 68100",https://www.waze.com/en/live-map/directions/my/selangor/batu-caves/subway?place=ChIJi5BmZXtHzDER519jKGFtoFk,3.2376664,101.700343
"Subway Trillium, Lake Fields","Monday - Sunday, 8:30 AM - 10:00 PM","No.66, Jalan Tasik Utama 7, Medan Niaga Tasik Damai, (Trillium) Lake Field, Sg Besi, Kuala Lumpur, 57000","https://waze.com/ul?ll=3.059890,101.710432",3.05989,101.710432
Subway Ikon Connaught,"Monday - Sunday, 10:00 AM - 8:00 PM","Ikon Connaught, G-02A & Alfresco GA-02A, Ground Floor, Jalan Cerdas, Taman Connaught, Kuala Lumpur, 56100",https://www.waze.com/en/live-map/directions/subway-ikon-connaught-lot-g-02a-ikon-connaught-kuala-lumpur?place=w.66650143.666698036.27398136,3.0814646,101.7314185
Subway Atria,"Monday - Sunday, 10:00 AM - 10:00 PM","Atria Shopping Gallery, Lot C11, Jalan SS 22/23, Damansara Jaya, Petaling Jaya, 47400",https://www.waze.com/en/live-map/directions/subway-atria-shoppinggallery-lot-c11-atria-shopping-gallery-petaling-jaya?place=w.66584607.665977145.27398112,3.1270963,101.6165176
Subway SS3,"Monday - Saturday, 8:00 AM – 10:00PM
Sunday, 8:00 AM – 9:00PM","Jalan SS3/39, Ground Floor, Unit 16, Bangunan PJ21, Petaling Jaya, 47300",https://www.waze.com/en/live-map/directions/my/selangor/pj/subway-ss3?place=ChIJuTzSm3VMzDERLk_bVVw9iTg,3.0912512,101.6149133
Subway Ativo Plaza,"Monday - Saturday, 8:30 AM – 10:00PM
Sunday, 8:30 AM – 9:30PM","Ativo Plaza, #1 Jalan PJU 9/1, Damansara Ave, B-G-2, Block B, Bandar Sri Damansara, Kuala Lumpur, 52200",https://www.waze.com/en/live-map/directions/subway-ativo-plaza-jalan-pju-91-kuala-lumpur?place=w.66584608.665977152.5632979,3.1967245,101.6162782
Subway Sunway U,"Monday - Sunday, 9:00 AM - 8:00 PM","No. 27 Jalan PJS 11/9, Bandar Sunway, Petaling Jaya, 46150","https://www.waze.com/en/live-map/directions/subway-sunway-university-no.-27-jalan-pjs-119,-bandar-sunway,-46150-subang-jaya?place=w.66584607.665846067.26717443",3.0678184,101.6031071
Subway Kota Damansara,"Monday - Sunday, 8:00 AM - 8:00 PM","15-1, Jalan PJU 5/6, Dataran Sunway, Kota Damansara, Petaling Jaya, 47810",https://www.waze.com/en/live-map/directions/my/selangor/pj/subway-@-dataran-sunway?place=ChIJjaT4bSBPzDERdko25w89Fq8,3.1532059,101.5949069
Subway OUG,"Monday - Sunday, 9:00 AM - 10:00 PM","A1-07 Jalan 1/52, Taman OUG Parklane Off Jalan Klang Lama 58200 Kuala Lumpur",https://www.waze.com/en/live-map/directions/my/wilayah-persekutuan-kuala-lumpur/kuala-lumpur/subway-oug-parklane?place=ChIJW9BS3nlLzDERdemjQm9QkBE,3.0823013,101.6684135
Subway Petronas Kesas,"Monday - Saturday, 7:30 AM – 10:00PM
Sunday, 8:00 AM – 10:00PM","Petronas Station, Lebuhraya Kesas Arah Barat KM34.5, Lebuhraya Kesas, 40000 Shah Alam, Selangor",https://www.waze.com/en/live-map/directions/my/selangor/subang-jaya/subway-petronas-kesas-highway-arah-barat-km34.-5?place=ChIJ9bLY5B5NzDERCu0iuXkBptY,3.0501009,101.5633702
Subway Sri Petaling,"Monday - Sunday, 8:00 AM - 10:00 PM","No. 53, Jalan Radin Bagus, 57000 Sri Petaling, Kuala Lumpur",https://www.waze.com/en/live-map/directions/subway-sri-petaling-jalan-radin-bagus-53-kuala-lumpur?place=w.66650143.666435891.12280737,3.0703916,101.6950263
Subway Puncak Jalil,"Monday - Sunday, 9:00 AM - 10:00 PM","116 Jalan PUJ 3/2,Taman Puncak Jalil, Bandar Putra Permai,Seri Kembangan, 63300",https://www.waze.com/en/live-map/directions/my/selangor/seri-kembangan/subway?place=ChIJzXasDDu1zTERjmQ2GXJQHxk,3.0202228,101.6750218
Subway Aeon Alpha Angle,"Monday - Sunday, 10:00 AM - 10:00 PM","AEON Alpha Angle Shopping Ctr, Lot F37A, Jalan R1, Seksyen 1, Bandar Baru Wangsa Maju, Kuala Lumpur, 53300",https://www.waze.com/en/live-map/directions/my/federal-territory-of-kuala-lumpur/kuala-lumpur/subway-@-aeon-alpha-angle?place=ChIJKfuHkjw4zDERcBLnlBYSXNw,3.2021198,101.7341702
Subway My Town,"Monday - Sunday, 10:00 AM - 10:00 PM","Lot B1-07 & B1-08, Level Basement 1, MyTOWN Shopping Centre, Jalan Cochrane, Seksyen 90, Kuala Lumpur, 55100","https://www.waze.com/en/live-map/directions/subway-mytown-shopping-centre-b1-07-and-b1-08,-mytown-shopping-centre,-55100-kuala-lumpur?place=w.66650143.666632505.27397019",3.1499222,101.6944619
Subway Utropolis,"Monday - Sunday, 8:30 AM - 9:00 PM","G-B2a, Utropolis Marketplace, Jalan Kontracktor U1/14, Seksyen U1, 40150 Shah Alam, Selangor","https://www.waze.com/en/live-map/directions/subway-utropolis-marketplace-g-b2a,-utropolis-marketplace-shah-alam?place=w.66584607.665583925.27402093",3.0901139,101.5598641
Subway Great Eastern Mall,"Monday - Friday, 8:30 AM – 8:30PM
Saturday & Sunday, 9:30 AM – 8:30PM","Great Eastern Mall, Lot 4C Lower Ground Floor, No 303 Jalan Ampang, Kuala Lumpur, 50450","https://www.waze.com/en/live-map/directions/subway-great-eastern-mall-great-eastern-mall,-lot-4c-lower-ground-floor-kuala-lumpur?place=w.66650144.666763580.27398397",3.1600725,101.7369013
Subway NU Sentral,"Monday - Sunday, 9:00 AM - 9:00 PM","L4.13, Level Four, NU Sentral, No. 201 Jalan Tun Sambanthan, Kuala Lumpur, 50470","https://www.waze.com/en/live-map/directions/subway-nu-sentral-l4.13,-level-four,-nu-sentral-kuala-lumpur?place=w.66650143.666435897.27398085",3.1328277,101.6873496
Subway IOI City Mall,"Monday - Sunday, 10:00 AM - 9:00 PM","LG-256C, Lower Ground Floor, IOI City Mall, Lebuh IRC, IOI Resort City, 62502 Putrajaya, Malaysia","https://www.waze.com/en/live-map/directions/subway-ioi-city-mall-ioi-city-mall,-lebuh-irc,-ioi-resort-city,-62502-putrajaya?place=w.66650142.666566953.27400823",2.9692262,101.7123714
Subway Sunway Putra,"Monday - Sunday, 10:00 AM - 10:00 PM","Lot 4-60 & 4-79A, Fourth Floor, Sunway Putra Mall, No. 100, Jalan Putra, 50350 Kuala Lumpur",https://www.waze.com/en/live-map/directions/my/federal-territory-of-kuala-lumpur/kuala-lumpur/subway-@-sunway-putra-mall?place=ChIJZ9G0hjxIzDERadDFIQqD8Ck,3.1664256,101.6924194
Subway Sunway Pinnacle,"Monday - Friday, 8:00 AM – 8:00PM
Saturday, 9:00 AM – 6:00PM
Sunday, Closed","M-01, Mezzanine Floor, The Pinnacle, Persiaran Lagoon, Bandar Sunway, 46150 Petaling Jaya, Selangor",https://www.waze.com/en/live-map/directions/my/selangor/pj/subway@sunway-pinnacle?place=ChIJQ3L-SYFMzDER_wOO4aHBkQs,3.0723586,101.6089721
Subway Melawati Mall,"Monday - Sunday, 10:00 AM - 10:00 PM","L3-22, Third Floor, Melawati Mall, UP2-01, Melawati Mall, 355, Jalan Bandar Melawati, Pusat Bandar Melawati, 53100 Kuala Lumpur","https://www.waze.com/en/live-map/directions/subway-melawati-mall-lot-l3-22-melawati-mall,-ampang-kuala-lumpur?place=w.66650144.666829121.27398467",3.2104842,101.7485587
Subway Sunway Medical,"Monday - Sunday, 8:00 AM - 8:00 PM","Sunway Medical Centre, Ground Floor,No. 5, Jalan Lagoon Selatan, 47500 Selangor","https://waze.com/ul?ll=3.066085,101.608626",3.0658578,101.609476
Subway Shell Melati,"Monday - Sunday, 8:30 AM - 6:00 PM","PT 5729, Batu 6 1/2, Ulu Gombak, 68100 Gombak. Selangor","https://www.waze.com/en/live-map/directions/subway-shell-melati-jalan-lingkaran-tengah-2,-pt5729,-shell-melati-kuala-lumpur?place=w.66650144.666632516.27398141",3.2535016,101.6533256
Subway Shell Karak,"Monday - Sunday, 8:30 AM - 10:30 PM","PT 5946, Lebuhraya Karak, 68100 Gombak, Selangor","https://www.waze.com/en/live-map/directions/subway-lebuhraya-karak-pt-5946,-lebuhraya-karak,-68100-gombak,-selangor-kuala-lumpur?place=w.66650144.666632516.27398042",3.241191,101.715918
Subway Bukit Jalil,"Monday - Sunday, 9:00 AM - 10:00 PM","Level 1 Axiata Arena, KL Sport City, Bukit Jalil, 57000, Kuala Lumpur",https://www.waze.com/en/live-map/directions/my/wilayah-persekutuan-kuala-lumpur/kuala-lumpur/subway-axiata-arena-bukit-jalil?place=ChIJ_1r32pdKzDERwqb1Q3n6L9o,3.0534968,101.6924882
Subway Damansara Perdana,"Monday - Friday, 8:00 AM – 10:00PM
Saturday & Sunday, 8:00 AM – 9:30PM","D-S-G-01, Metropolitan Square, Jalan PJU 8/1, Damansara Perdana, Petaling Jaya, 47820, Selangor",https://www.waze.com/en/live-map/directions/my/selangor/pj/subway-@-damansara-perdana-or-metropolitan-sq?place=ChIJWz04PAdPzDERiU-tHTIPyiY,3.1662899,101.60907
Subway Pearl Point,Monday - Sunday (9:00AM - 10:00PM),"Lot No. 1.0.69 (Ground Floor), Pearl Point Shopping Mall, Batu 5, Jalan Klang Lama, 58000 Kuala Lumpur","https://waze.com/ul?ll=3.083153,101.669445",3.0831533,101.6694446
Subway Gurney Mall (UTMKL),"Tuesday – Sunday, 10:00 AM – 9:30PM
Monday, 8:00 AM – 9:30PM","Lot 1-03, Level 1, Residensi UTMKL, No 8 Jalan Maktab, 54000 Kuala Lumpur",https://www.waze.com/en/live-map/directions/my/wilayah-persekutuan-kuala-lumpur/kuala-lumpur/subway-utmkl?place=ChIJ7_y8Q5A3zDER6JGmn1Nfmqc,3.1715697,101.7216784
Subway KLTS,"Monday - Sunday, 9:00 AM - 9:30 PM","45-G, Plaza KLTS, Block C, Jalan Gombak, 53000 Kuala Lumpur",https://www.waze.com/en/live-map/directions/my/federal-territory-of-kuala-lumpur/kuala-lumpur/subway-klts?place=ChIJKd965yNHzDERs76aJJNwaw4,3.2042669,101.7042083
Subway Jaya One,"Monday - Sunday, 10:30 AM - 9:00 PM","100-P2.015, Level 2, Block J, The School Jaya One, No.72A Jalan Prof Diraja Ungku Aziz, 46200 Petaling Jaya, Selangor",https://www.waze.com/en/live-map/directions/my/selangor/pj/subway-jaya-one?place=ChIJcQghqGVJzDERLSVTpukyla4,3.1173734,101.635064
Subway Petronas Grand Saga 3,,"Lot 432, Lebuhraya Grand Saga, (Kajang Bound) 43300, Kajang, Selangor","https://waze.com/ul?ll=3.025706,101.771637",3.0486797,101.7754248
Subway MSU,"Monday - Sunday, 8:00 AM – 8:00PM","Lot S0205 Management & Science University, Seksyen 13, 40100 Shah Alam, Selangor","https://www.waze.com/en/live-map/directions/subway-msu-lot-s0205,-management-and-science-university-(msu)-shah-alam?place=w.66584607.665518388.27402347",3.0779178,101.5529156
Subway Sungai Buloh,"Monday - Sunday, 8:00 AM - 10:00 PM","2390, Jalan 1A-1, Bdr Baru Sg Buloh, Seksyen U20, 40610 Shah Alam, Selangor",https://www.waze.com/en/live-map/directions/my/selangor/sungai-buloh/subway?place=ChIJN48KfTJFzDERqzad5XvCtwo,3.2109117,101.5648128
Subway Subang Parade,"Monday - Sunday, 9:00 AM - 10:00 PM","LGC17, Lower Ground Floor, Subang Parade Shopping Centre, Jalan Kemajuan Subang, Ss 16, 47500 Subang Jaya, Selangor",https://www.waze.com/en/live-map/directions/my/selangor/subang-jaya/subway-subang-parade-mall?place=ChIJR-sOzp5NzDERyLXi0ZNbEGw,3.0814893,101.5851028
Subway KL East Mall,"Sunday – Thursday, 10:00 AM – 8:00PM
Friday & Saturday, 9:00 AM – 8:00PM","LG 37 , Lower Ground Floor, KL East Mall, 823 Jalan Lingkaran Tengah 2, KL Timur, 53100 Kuala Lumpur",https://www.waze.com/en/live-map/directions/my/wilayah-persekutuan-kuala-lumpur/kuala-lumpur/subway-kl-east-mall?place=ChIJ98w9Q285zDERzcGnUTqyW_U,3.2247781,101.7304658
Subway Bandar Sri Permaisuri,"Monday - Sunday, 10:00 AM - 9:00 PM","Lot R-G-07, Ground Floor Q Avenue, Kompleks Permaisuri Q, No.6,Jalan Sri Permaisuri, Bandar Sri Permaisuri, Cheras 56000 Kuala Lumpur",https://www.waze.com/en/live-map/directions/my/wilayah-persekutuan-kuala-lumpur/kuala-lumpur/subway-@-bandar-sri-permaisuri?place=ChIJOdM1NoI1zDERNMFVeFKzCJk,3.1020549,101.7118969
Subway Mahkota Cheras,"Monday - Sunday, 10:00 AM - 11:00 PM","32G, Jalan Temenggung 1/9, Bandar Mahkota Cheras, 43200 Cheras, Selangor",https://www.waze.com/en/live-map/directions/my/selangor/cheras/subway-mahkota-cheras?place=ChIJMyT9PzA1zDER7wCQsKhyL2s,3.0509156,101.7893132
Subway KLCC,"Monday - Sunday, 10:00 AM - 10:00 PM","Lot F208, Second Floor, Suria KLCC, Jalan Ampang, Golden, 50088 Kuala Lumpur",https://www.waze.com/en/live-map/directions/my/wilayah-persekutuan-kuala-lumpur/kuala-lumpur/subway-@-suria-klcc?place=ChIJ4w-9zNY3zDER1BwAcFWcn74,3.158154,101.7120899
Subway Sri Serdang,"Monday - Sunday, 8:00 AM - 10:00 PM","No 11 Jalan 18/34 Taman Sri Serdang, Seri Kembangan 43300 Selangor",https://www.waze.com/en/live-map/directions/subway-sri-serdang-jalan-1834-11-seri-kembangan?place=w.66650142.666566957.26164017,3.0086244,101.7132879
Subway Kepong,"Monday - Sunday, 8:00 AM - 8:30 PM","91, Jalan Metro Barat Perdana 1, Taman Usahawan Kepong, 52100 Kuala Lumpur",https://www.waze.com/en/live-map/directions/my/wilayah-persekutuan-kuala-lumpur/kuala-lumpur/subway-kepong-metro-prima?place=ChIJcyKJRLdHzDERdeFs6es6yK4,3.218244,101.6348306
Subway Damansara Damai,"Monday - Sunday, 7:30 AM - 10:00 PM","G001, Seasons Square, Jalan Pju 10/3C, Damansara Damai, 47830 Petaling Jaya, Selangor",https://www.waze.com/en/live-map/directions/my/selangor/pj/subway-damansara-damai-outlet?place=ChIJC3Ibl2hFzDERwxPbt2vGpi4,3.1965278,101.5929753
Subway Kidzania KL,Mon - Sun : 10am-6pm,"Kidzania Kuala Lumpur, Lot 11, Lower Ground Curve NX, No.18 Jalan PJU 7/5, 47810 Mutiara Damansara, Petaling Jaya Selangor","https://waze.com/ul?ll=3.158034,101.613800",3.1580958,101.6138072
Subway BTHO,"Monday - Sunday, 7:30 AM - 10:00 PM","No 5A, Ground Floor, Jalan Suarasa 8/3 Bandar Tun Hussien Onn, 43200 Cheras, Selangor Darul Ehsan",https://www.waze.com/en/live-map/directions/my/selangor/cheras/subway-bandar-tun-hussein-onn?place=ChIJKQ4pWYM1zDER1Z5A7QP-0XI,3.0481567,101.7600258
Subway Thomson Hospital,"Monday - Friday, 8:00 AM – 9:00PM
Saturday & Sunday, 9:00 AM – 7:00PM","GF-Unit 1109-3, 11 Jalan Teknologi PJU 5, 47810 Kota Damansara, Petaling Jaya, Selangor",https://www.waze.com/en/live-map/directions/my/selangor/pj/subway-thomson-hospital-kota-damansara?place=ChIJA8VxjANPzDERHq2EmG3gs9Q,3.1535043,101.5666523
Subway BHP Jalan Kuching,"Monday - Sunday, 7:30 AM - 10:00 PM","BHPetrol Jalan Kuching, Lot PT 4283 & Lot 6086 Jalan Kuching, 52100 Kuala Lumpur.",https://www.waze.com/en/live-map/directions/my/wilayah-persekutuan-kuala-lumpur/kuala-lumpur/subway-@-bhp-jalan-kuching?place=ChIJH9__naBJzDERIoGI17o-ttQ,3.18844,101.6701582
Subway Hero Puchong,"Monday - Sunday, 9:00 AM - 9:00 PM","Lot No G-13 , Hero Puchong, Lot 1, Jalan Puteri 1/1 , 43200 Puchong, Selangor.",https://www.waze.com/en/live-map/directions/my/selangor/puchong/subway-@-hero-market-bandar-puteri?place=ChIJVVVVVaK0zTERxDwfsn9pkkI,3.025863,101.6181331
Subway Pavilion Bukit Jalil,"Monday - Sunday, 9:30 AM - 10:00 PM","Lot 1.40.00, Persiaran Jalil Utama, Bukit Jalil, Kuala Lumpur",https://www.waze.com/en/live-map/directions/my/federal-territory-of-kuala-lumpur/kuala-lumpur/subway-@-pavilion-bukit-jalil?place=ChIJ5feNFj5LzDERnz6TuHwTHFo,3.048822,101.6735075
Subway Petron Ukay Perdana,Monday - Sunday (8:00AM - 10:00PM),"No. PT 5765, Jln Ukay Perdana, Ukay Perdana, 68000 Ampang, Selangor",https://www.waze.com/en/live-map/directions/my/selangor/ampang/subway-petron-ukay-perdana?place=ChIJo0u0S085zDERqPaK5YAiCEU,3.1971318,101.7752866
Subway Lotus Cheras,"Monday - Sunday, 9:30 AM - 9:00 PM","Lot G27-G29, No.2, Jalan Midah 2, Taman Midah, 56000 Cheras, Kuala Lumpur","https://waze.com/ul?ll=3.099541,101.734766",3.102042,101.7339485
Subway Equine Park,"Monday - Sunday, 8:00 AM - 10:00 PM","7-G, Jalan Putra Permai 1A, Taman Equine, 43300 Seri Kembangan, Selangor.",https://www.waze.com/en/live-map/directions/my/selangor/seri-kembangan/subway-equine-park?place=ChIJQWbBMNO1zTERb4qKY97QGxs,2.9961824,101.6697448
Subway Syopz,"Monday - Saturday, 10:00 AM – 10:00PM
Sunday, Closed","G-5, The Boardwalk, No.2, Jalan Taylor’s, 47500 Subang Jaya, Selangor Darul Ehsan",https://www.waze.com/en/live-map/directions/subway-syopz-mall-lot-lg1-7-taylor-college-lakeside-campus-subang-jaya?place=w.66584607.665977138.27399053,3.0646493,101.6164465
Subway Matahari Mall,Monday - Sunday (10:00AM - 9:30PM),"Lot S15 & S16 , Ground Floor, Matahari Mall, No. 1, PJS 2/18, Taman Maju Jaya, 46000 Petaling Jaya,Selangor","https://waze.com/ul?ll=3.080121,101.638012",3.0798367,101.6380193
Subway SPARK,Monday - Sunday (8:00AM - 10:00PM),"1-01 Plaza Salak Park, No 2, Jalan 1/125E, Taman Desa Petaling, 57100 Kuala Lumpur","https://waze.com/ul?ll=3.082778,101.702471",3.0827782,101.7024706
Subway Sunway Pyramid,"Monday - Sunday, 10:00 AM - 10:00 PM","LG2.32, Lower Ground Two, Sunway Pyramid, 3, Jalan PJS 11/15, Bandar Sunway, 47500 Petaling Jaya, Selangor",https://www.waze.com/en/live-map/directions/my/selangor/pj/subway-sunway-pyramid?place=ChIJm21YdodMzDERFtdyEMzPHLI,3.0731724,101.6075559
Subway Caltex Serdang,"Monday - Sunday, 8:00 AM - 10:00 PM","No.2, Lot.14985, Jalan SR 8/1, Taman Putra Indah, 43300, Seri Kembangan, Selangor","https://waze.com/ul?ll=3.047098,101.704403",3.0470979,101.7044027
Subway Subang Bestari,"Monday - Sunday, 10:00 AM - 10:00 PM","No 4, Jalan Nova N U5/N, Seksyen U5, 40150 Shah Alam, Selangor",https://www.waze.com/en/live-map/directions/subway-subang-bestari-jalan-nova-u5n-4-shah-alam?place=w.66519072.665518398.26851094,3.1605592,101.5491519
Subway Denai Alam,"Monday - Sunday, 8:15 AM - 9:45 PM","Unit Ground Floor, No 7, Jalan Electron E U16/E, Seksyen U16, 40160 Shah Alam,Selangor",https://www.waze.com/en/live-map/directions/my/selangor/shah-alam/subway-denai-alam?place=ChIJ-3Els5pRzDERJRqqSNFklxg,3.1612352,101.5118303
Subway Aeon Taman Maluri,"Sunday - Thursday, 10:00 AM – 10:00PM
Friday & Saturday, 10:00 AM – 10:30PM","Lot G32,AEON Mall Taman Maluri, Jalan Jejaka, Taman Maluri Cheras 55100, Kuala Lumpur",https://www.waze.com/en/live-map/directions/my/wilayah-persekutuan-kuala-lumpur/cheras/subway-aeon-taman-maluri?place=ChIJxZc1CgI3zDER0L07egWJ6A4,3.1259253,101.7283988
Subway Subang Perdana,"Monday - Sunday, 8:00 AM - 10:00 PM","No. 17-G, Jalan Dinar D U3/D, Seksyen U3, 40150 Shah Alam, Selangor",https://www.waze.com/en/live-map/directions/my/selangor/subang-jaya/subway-subang-perdana?place=ChIJ4cb8F1BPzDERwkdC9tagYg0,3.1488191,101.5455463
Subway KL Gateway,Monday - Sunday (8:00AM - 10:00PM),"G1.K5, Lower Ground 1, KL Gateway Mall, 2, Jalan Kerinchi, 59200 Kuala Lumpur",https://www.waze.com/en/live-map/directions/my/wilayah-persekutuan-kuala-lumpur/kuala-lumpur/subway-kl-gateway-mall?place=ChIJ1cy2C85JzDERxEe6xZaRRyg,3.114035,101.6634081
Subway Lotuss Selayang,Monday - Sunday (10:00AM - 10:00PM),"Lot F-18 & 18 (External) No. 1081, Jalan Ipoh Mukim Batu 51200 Kuala Lumpur","https://waze.com/ul?ll=3.222777,101.670945",3.2027066,101.67524
Subway Hartamas SC,Monday - Sunday (10:00AM - 10:00PM),"Lot G-22A & G-22B . Hartamas Shopping Center, 60, Jalan Sri Hartamas 1, Taman Sri Hartamas, 50480 Kuala Lumpur, Wilayah Persekutuan Kuala Lumpur","https://waze.com/ul?ll=3.163504,101.656995",3.163504,101.656995
Subway Paradigm Mall,"Monday - Sunday, 10:00 AM - 10:00 PM","LG-33A(P), LG Floor No. 1, Jalan SS7/26A Kelana Jaya 47301 Petaling Jaya Selangor","https://waze.com/ul?ll=3.105084,101.596048",3.1050837,101.5960481
Subway Damen,"Monday - Sunday, 10:00 AM - 10:00 PM","LG38, Lower Ground Floor Damen USJ 1 Jalan Persiaran Kewajipan USJ 1 47600 Subang Jaya",https://www.waze.com/en/live-map/directions/my/selangor/subang-jaya/subway-da-men?place=ChIJ9-92ti9NzDERgRUlEJ3Y8Wc,3.0579586,101.5927693
Subway Tropicana Garden,Monday - Sunday (10:00AM - 10:00PM),"CC-K55A, Concourse Floor, No. 2A, Persiaran Surian Tropicana Indah, 47810 Petaling Jaya, Selangor","https://waze.com/ul?ll=3.149188,101.593094",3.1494258,101.5872955
Subway Main Place,"Monday - Sunday, 10:00 AM - 10:00 PM","LG33, Main Place Mall USJ, Jalan USJ 21/10, Persiaran Kewajipan, 47630 Subang Jaya, Selangor.",https://www.waze.com/en/live-map/directions/my/selangor/subang-jaya/subway?place=ChIJjb3QkzGzzTERYh-RwcOFeEY,3.02632,101.5811466
Subway Intermark Mall,"Monday - Sunday, 10:00 AM - 10:00 PM","The Intermark, Intermark Mall, 348, Jalan Tun Razak, 50400 Kuala Lumpur",https://www.waze.com/en/live-map/directions/my/wilayah-persekutuan-kuala-lumpur/kuala-lumpur/subway-the-intermark?place=ChIJ48goZMU3zDERrTBFRU1gP-Mhttps://www.waze.com/en/live-map/directions/my/wilayah-persekutuan-kuala-lumpur/kuala-lumpur/subway-the-intermark?place=ChIJ48goZMU3zDERrTBFRU1gP-M,3.1613001,101.7199536
Subway Central Square,"Monday - Sunday, 9:00 AM - 10:00 PM","23 Jalan Kampung Baru Lot GK-02 Central Square Shopping Center, 08000 Sungai Petani, Kedah","https://www.waze.com/en/live-map/directions/subway-central-square-lot-gk-02,-central-square-shopping-center-sungai-petani?place=w.65863736.658571828.27396324",5.6369764,100.4885066
Subway The Grand SS15,"Monday - Sunday, 8:00 AM - 10:00 PM","G7, The Grand Subang Jaya, Jalan SS 15/8a, Ss 15, 47500 Subang Jaya, Selangor",https://www.waze.com/en/live-map/directions/my/selangor/subang-jaya/subway-the-grand-subang-jaya?place=ChIJJxTAK6JNzDER4MbW2WX_jG0,3.0744152,101.5902974
Subway Radia Bukit Jelutong,"Monday - Sunday, 7:30 AM - 10:00 PM","G0-23, Radia Sales Gallery, Persiaran Arked, Bukit Jelutong, 40150 Shah Alam, Selangor",https://www.waze.com/en/live-map/directions/my/selangor/shah-alam/subway-radia-bukit-jelutong?place=ChIJ98G9H_JNzDERRS_vEqme9_s,3.1001976,101.5350661
Subway Kelana Jaya (KJ),"Monday - Sunday, 10:00 AM - 10:30 PM","Suite 109b, Ground Floor, Office Tower, Kelana Park View, No.1, Jalan SS6/2, 47301 Petaling Jaya, Selangor",https://www.waze.com/en/live-map/directions/my/selangor/pj/subway-kelana-jaya-or-kelana-parkview?place=ChIJRU4RwhBMzDERZ_FO9UjGJ7g,3.1008867,101.5991613
Subway Sierra 16 Puchong,Monday - Sunday (8:00AM - 10:00PM),"Lot 3A-1, Sierra Fresco, Jln Sierra 10/1, Bandar 16 Sierra, 47110 Puchong, Selangor.",https://www.waze.com/en/live-map/directions/my/selangor/puchong/subway16sierra?place=ChIJ4cJ0tYW1zTERx74e0tVmW9g,2.9744255,101.6550518
Subway Caltex Bukit Indah Ampang,"Monday - Sunday, 8:00 AM - 10:00 PM","Caltex Bukit Indah, PT13887, Medan Bukit Indah, Taman Bukit Indah, 69000 Ampang, Selangor","https://waze.com/ul?ll=3.152855,101.774414",3.152899300000001,101.7743256
Subway Taman Danau Desa,Monday - Sunday (8:00AM - 10:00PM),,"https://waze.com/ul?ll=3.100857,101.687222",,
Subway Setapak Central Mall,Monday - Sunday (10:00AM - 10:00PM),"Kl Festival City, Lot S-23, No 67 Jalan Taman Ibu Kota, Taman Danau Kota, Setapak, Kuala Lumpur, 53200","https://waze.com/ul?ll=3.205267,101.720020",3.204403,101.720566
Subway Taman Ehsan,Monday - Sunday (8:00AM - 10:00PM),"No 520(GF) Jalan E3/8, Tmn Ehsan, 52100 Kepong, Selangor","https://waze.com/ul?ll=3.220409,101.622847",3.220572,101.625291
Subway Taman Sri Muda,Monday - Sunday (8:00AM - 10:00PM),"No 40 (GF), Jalan Murni 25/61, Taman Sri Muda, 40400 Shah Alam, Selangor","https://waze.com/ul?ll=3.032726,101.536497",3.0327538,101.5365242
Subway Mid Valley KL,Monday - Sunday (8:00AM - 10:00PM),"1st Floor, Zone 3, Kiosk FK-05, Mid Valley Megamall, Lingkaran Syed Putra, Mid Valley City, 59200 Kuala Lumpur","https://waze.com/ul?ll=3.118753,101.677459",3.1176991,101.6774777
Subway Lotus Ampang,Monday - Sunday (10:00AM - 10:00PM),"LOTUS’S AMPANG - OL1, Jalan Pandan Prima Dataran, Pandan Indah, 55100 Kuala Lumpur","https://waze.com/ul?ll=3.143814,101.741630",3.1439057,101.741801
Subway Razak City,Monday - Sunday (08:00AM to 10:00PM),"Block B-G-19 Residensi Bandar Razak, No 01 Jln Razak Mansion, 57100 Sungai Besi, K.L","https://waze.com/ul?ll=3.108465,101.706308",3.1088204,101.7068227
Subway Aeon Cheras Selatan,Monday to Sunday (10:00AM - 10:00PM),"F60, First Floor, ÆON Cheras Selatan, Lebuh Utama Tun Hussein Onn, Tun Hussein Onn, Cheras, Selangor","https://waze.com/ul?ll=3.033015,101.765206",3.0494764,101.7654878
Subway Kiara Bay,Monday - Sunday (10:00AM - 10:00PM),"""Lot G-22, The Beat Kiara Bay Kepong Metropolitan Park,Jalan Lingkaran Tengah 52100 Kuala Lumpur.""","https://waze.com/ul?ll=3.226999,101.650259",3.2260814,101.6502654
Subway Putra Ampang,Monday - Sunday (08:00AM - 10:00PM),"No 46-G, Jalan Bunga Tanjung 9B, Taman Putra, Ampang 68000, Selangor","https://waze.com/ul?ll=3.120457,101.762861",3.1200879,101.7624429
Subway SAMA Square,Monday - Sunday (10:00AM - 10:00PM),"G-14, Kompleks Sama, No.2, Jalan 1/23C, 53200 Setapak, KL, Wilayah Persekutuan Kuala Lumpur","https://waze.com/ul?ll=3.194440,101.720410",3.1941483,101.7202545
Subway SkyPark Terminal,Opening soon,"Lot No. G32A, Ground Floor, SkyPark Terminal, Lapangan Terbang Sultan Abdul Aziz Shah, 47200 Subang, Selangor.","https://waze.com/ul?ll=3.133070,101.553780",3.1330707,101.5537837
Subway IOI Mall Puchong,Mon - Sun (10:00AM to 10:00PM),"EF32A, First Floor, IOI Mall Puchong, Jalan Puchong, Bandar Puchong Jaya, 47170 Puchong, Selangor Darul Ehsan.","https://waze.com/ul?ll=3.046320,101.618350",3.0463256,101.6183585
Subway VSQ,"Monday - Sunday, 07:00AM - 09:00PM","Stall- Subway @Bacteria, Block 7, Ground Floor, VSQ @ PJ City Centre, Jlan Utara, 46200 Petaling Jaya, Selangor","https://waze.com/ul?ll=3.107196,101.639976",3.1071963,101.6399437
Subway IPC,Monday - Sunday 10:00AM - 10:00PM,"LG1.16, IPC Shopping Centre, No 2, Jalan PJU 7/2, Mutiara Damansara, 47800 Petaling Jaya, Selangor","https://waze.com/ul?ll=3.156502,101.611129",3.1561358,101.6116671
Subway Alam Damai DT,"Monday - Sunday, 10:00 AM - 8:00 PM","Lot AD-DT01, Alam Damai Layby, Ulu Kelang Bound, KM 6.4, Sg Besi-Ulu Kelang, Elevated Expressway 56000, KL","https://waze.com/ul?ll=3.075418,101.739003",3.060074,101.7406559
Subway Monash University,"Monday - Sunday, 10:00 AM - 10:00 PM","Monash University Malaysia, Building 6B, Level 1, Jalan Lagoon Selatan, Bandar Sunway, 47500 Subang Jaya, Selangor","https://waze.com/ul?ll=3.063566,101.600306",3.0649887,101.6009426
